{"type": "FeatureCollection", "features": [ {"type": "Feature", "properties": {"norad_id": 38755, "name": "SPOT 6", "group": "resource", "lat": 70.83725796955177, "lon": -102.26214218178185, "alt_km": 690.0074650668648, "timestamp": "2025-12-14T14:39:29.033294+00:00", "meta": {"OBJECT_NAME": "SPOT 6", "OBJECT_ID": "2012-047A", "EPOCH": "2025-12-14T00:59:47.805792", "MEAN_MOTION": 14.58605769, "ECCENTRICITY": 0.000117, "INCLINATION": 98.157, "RA_OF_ASC_NODE": 52.802, "ARG_OF_PERICENTER": 98.5806, "MEAN_ANOMALY": 261.5526, "EPHEMERIS_TYPE": 0, "CLASSIFICATION_TYPE": "U", "NORAD_CAT_ID": 38755, "ELEMENT_SET_NO": 999, "REV_AT_EPOCH": 70606, "BSTAR": 0.00017853844, "MEAN_MOTION_DOT": 7.86e-06, "MEAN_MOTION_DDOT": 0}, "tle": {"line1": "1 38755U 12047A   25348.04152553  .00000786  00000+0  17854-3 0  9997", "line2": "2 38755  98.1570  52.8020 0001170  98.5806 261.5526 14.58605769706069"}}, "geometry": {"type": "Point", "coordinates": [-102.26214218178185, 70.83725796955177]}}, {"type": "Feature", "properties": {"norad_id": 39019, "name": "PLEIADES 1B", "group": "resource", "lat": 5.3983901219624615, "lon": 60.45365457858445, "alt_km": 699.8848721999893, "timestamp": "2025-12-14T14:39:29.033304+00:00", "meta": {"OBJECT_NAME": "PLEIADES 1B", "OBJECT_ID": "2012-068A", "EPOCH": "2025-12-13T23:48:54.636192", "MEAN_MOTION": 14.58555307, "ECCENTRICITY": 0.00012277, "INCLINATION": 98.179, "RA_OF_ASC_NODE": 60.6238, "ARG_OF_PERICENTER": 83.722, "MEAN_ANOMALY": 276.4119, "EPHEMERIS_TYPE": 0, "CLASSIFICATION_TYPE": "U", "NORAD_CAT_ID": 39019, "ELEMENT_SET_NO": 999, "REV_AT_EPOCH": 69385, "BSTAR": 0.00017758713, "MEAN_MOTION_DOT": 7.8e-06, "MEAN_MOTION_DDOT": 0}, "tle": {"line1": "1 39019U 12068A   25347.99229903  .00000780  00000+0  17759-3 0  9999", "line2": "2 39019  98.1790  60.6238 0001227  83.7220 276.4119 14.58555307693851"}}, "geometry": {"type": "Point", "coordinates": [60.45365457858445, 5.3983901219624615]}}, {"type": "Feature", "properties": {"norad_id": 39030, "name": "GOKTURK 2", "group": "resource", "lat": -26.41236017696001, "lon": -165.97994207010862, "alt_km": 650.4043855053214, "timestamp": "2025-12-14T14:39:29.033315+00:00", "meta": {"OBJECT_NAME": "GOKTURK 2", "OBJECT_ID": "2012-073A", "EPOCH": "2025-12-14T00:07:43.159296", "MEAN_MOTION": 14.75295969, "ECCENTRICITY": 0.00010401, "INCLINATION": 97.6897, "RA_OF_ASC_NODE": 189.5968, "ARG_OF_PERICENTER": 105.2214, "MEAN_ANOMALY": 254.9111, "EPHEMERIS_TYPE": 0, "CLASSIFICATION_TYPE": "U", "NORAD_CAT_ID": 39030, "ELEMENT_SET_NO": 999, "REV_AT_EPOCH": 69720, "BSTAR": 0.0002280475, "MEAN_MOTION_DOT": 1.497e-05, "MEAN_MOTION_DDOT": 0}, "tle": {"line1": "1 39030U 12073A   25348.00536064  .00001497  00000+0  22805-3 0  9994", "line2": "2 39030  97.6897 189.5968 0001040 105.2214 254.9111 14.75295969697203"}}, "geometry": {"type": "Point", "coordinates": [-165.97994207010862, -26.41236017696001]}}, {"type": "Feature", "properties": {"norad_id": 39084, "name": "LANDSAT 8", "group": "resource", "lat": 13.78708025930085, "lon": -121.31381954161704, "alt_km": 703.3657892939564, "timestamp": "2025-12-14T14:39:29.033325+00:00", "meta": {"OBJECT_NAME": "LANDSAT 8", "OBJECT_ID": "2013-008A", "EPOCH": "2025-12-13T23:03:59.106528", "MEAN_MOTION": 14.57115436, "ECCENTRICITY": 0.00010883, "INCLINATION": 98.2072, "RA_OF_ASC_NODE": 56.0166, "ARG_OF_PERICENTER": 89.6964, "MEAN_ANOMALY": 270.4359, "EPHEMERIS_TYPE": 0, "CLASSIFICATION_TYPE": "U", "NORAD_CAT_ID": 39084, "ELEMENT_SET_NO": 999, "REV_AT_EPOCH": 67092, "BSTAR": 0.00013768934, "MEAN_MOTION_DOT": 5.75e-06, "MEAN_MOTION_DDOT": 0}, "tle": {"line1": "1 39084U 13008A   25347.96110077  .00000575  00000+0  13769-3 0  9993", "line2": "2 39084  98.2072  56.0166 0001088  89.6964 270.4359 14.57115436670928"}}, "geometry": {"type": "Point", "coordinates": [-121.31381954161704, 13.78708025930085]}}, {"type": "Feature", "properties": {"norad_id": 39086, "name": "SARAL", "group": "resource", "lat": -12.167295890737423, "lon": 174.37535001426608, "alt_km": 787.8344505783953, "timestamp": "2025-12-14T14:39:29.033335+00:00", "meta": {"OBJECT_NAME": "SARAL", "OBJECT_ID": "2013-009A", "EPOCH": "2025-12-13T23:37:51.265632", "MEAN_MOTION": 14.32757522, "ECCENTRICITY": 0.00028933, "INCLINATION": 98.5503, "RA_OF_ASC_NODE": 171.8988, "ARG_OF_PERICENTER": 106.3272, "MEAN_ANOMALY": 253.8231, "EPHEMERIS_TYPE": 0, "CLASSIFICATION_TYPE": "U", "NORAD_CAT_ID": 39086, "ELEMENT_SET_NO": 999, "REV_AT_EPOCH": 66908, "BSTAR": 8.1008809e-05, "MEAN_MOTION_DOT": 1.77e-06, "MEAN_MOTION_DDOT": 0}, "tle": {"line1": "1 39086U 13009A   25347.98462113  .00000177  00000+0  81009-4 0  9990", "line2": "2 39086  98.5503 171.8988 0002893 106.3272 253.8231 14.32757522669084"}}, "geometry": {"type": "Point", "coordinates": [174.37535001426608, -12.167295890737423]}}, {"type": "Feature", "properties": {"norad_id": 39150, "name": "GAOFEN-1", "group": "resource", "lat": 58.689158172272585, "lon": 45.98505427062522, "alt_km": 631.7825954638929, "timestamp": "2025-12-14T14:39:29.033345+00:00", "meta": {"OBJECT_NAME": "GAOFEN-1", "OBJECT_ID": "2013-018A", "EPOCH": "2025-12-13T23:45:03.797856", "MEAN_MOTION": 14.76538052, "ECCENTRICITY": 0.0018304, "INCLINATION": 97.9324, "RA_OF_ASC_NODE": 58.6265, "ARG_OF_PERICENTER": 139.0786, "MEAN_ANOMALY": 221.1802, "EPHEMERIS_TYPE": 0, "CLASSIFICATION_TYPE": "U", "NORAD_CAT_ID": 39150, "ELEMENT_SET_NO": 999, "REV_AT_EPOCH": 68091, "BSTAR": 0.00017492296, "MEAN_MOTION_DOT": 1.172e-05, "MEAN_MOTION_DDOT": 0}, "tle": {"line1": "1 39150U 13018A   25347.98962729  .00001172  00000+0  17492-3 0  9990", "line2": "2 39150  97.9324  58.6265 0018304 139.0786 221.1802 14.76538052680917"}}, "geometry": {"type": "Point", "coordinates": [45.98505427062522, 58.689158172272585]}}, {"type": "Feature", "properties": {"norad_id": 39160, "name": "VNREDSAT 1", "group": "resource", "lat": 43.64722981056512, "lon": 36.172309737666325, "alt_km": 672.8884578350362, "timestamp": "2025-12-14T14:39:29.033356+00:00", "meta": {"OBJECT_NAME": "VNREDSAT 1", "OBJECT_ID": "2013-021B", "EPOCH": "2025-12-13T23:42:12.547008", "MEAN_MOTION": 14.64925896, "ECCENTRICITY": 0.00013081, "INCLINATION": 97.9372, "RA_OF_ASC_NODE": 43.2186, "ARG_OF_PERICENTER": 79.455, "MEAN_ANOMALY": 280.6801, "EPHEMERIS_TYPE": 0, "CLASSIFICATION_TYPE": "U", "NORAD_CAT_ID": 39160, "ELEMENT_SET_NO": 999, "REV_AT_EPOCH": 67317, "BSTAR": 0.00020683809, "MEAN_MOTION_DOT": 1.061e-05, "MEAN_MOTION_DDOT": 0}, "tle": {"line1": "1 39160U 13021B   25347.98764522  .00001061  00000+0  20684-3 0  9990", "line2": "2 39160  97.9372  43.2186 0001308  79.4550 280.6801 14.64925896673177"}}, "geometry": {"type": "Point", "coordinates": [36.172309737666325, 43.64722981056512]}}, {"type": "Feature", "properties": {"norad_id": 39227, "name": "ARIRANG-5 (KOMPSAT-5)", "group": "resource", "lat": 28.47694994325447, "lon": 168.72627421386534, "alt_km": 549.450148363584, "timestamp": "2025-12-14T14:39:29.033366+00:00", "meta": {"OBJECT_NAME": "ARIRANG-5 (KOMPSAT-5)", "OBJECT_ID": "2013-042A", "EPOCH": "2025-12-14T00:09:53.961984", "MEAN_MOTION": 15.0451652, "ECCENTRICITY": 0.00035522, "INCLINATION": 97.6146, "RA_OF_ASC_NODE": 172.2927, "ARG_OF_PERICENTER": 52.0372, "MEAN_ANOMALY": 308.1175, "EPHEMERIS_TYPE": 0, "CLASSIFICATION_TYPE": "U", "NORAD_CAT_ID": 39227, "ELEMENT_SET_NO": 999, "REV_AT_EPOCH": 67601, "BSTAR": 0.00034287638, "MEAN_MOTION_DOT": 4.743e-05, "MEAN_MOTION_DDOT": 0}, "tle": {"line1": "1 39227U 13042A   25348.00687456  .00004743  00000+0  34288-3 0  9996", "line2": "2 39227  97.6146 172.2927 0003552  52.0372 308.1175 15.04516520676016"}}, "geometry": {"type": "Point", "coordinates": [168.72627421386534, 28.47694994325447]}}, {"type": "Feature", "properties": {"norad_id": 39418, "name": "SKYSAT-A", "group": "resource", "lat": 82.56869802278567, "lon": -47.584943200111766, "alt_km": 534.7527207724434, "timestamp": "2025-12-14T14:39:29.033377+00:00", "meta": {"OBJECT_NAME": "SKYSAT-A", "OBJECT_ID": "2013-066C", "EPOCH": "2025-12-13T22:22:29.760960", "MEAN_MOTION": 15.11617108, "ECCENTRICITY": 0.00207025, "INCLINATION": 97.4113, "RA_OF_ASC_NODE": 38.1046, "ARG_OF_PERICENTER": 232.0185, "MEAN_ANOMALY": 127.9177, "EPHEMERIS_TYPE": 0, "CLASSIFICATION_TYPE": "U", "NORAD_CAT_ID": 39418, "ELEMENT_SET_NO": 999, "REV_AT_EPOCH": 66048, "BSTAR": 0.00025160952, "MEAN_MOTION_DOT": 4.232e-05, "MEAN_MOTION_DDOT": 0}, "tle": {"line1": "1 39418U 13066C   25347.93228890  .00004232  00000+0  25161-3 0  9991", "line2": "2 39418  97.4113  38.1046 0020702 232.0185 127.9177 15.11617108660485"}}, "geometry": {"type": "Point", "coordinates": [-47.584943200111766, 82.56869802278567]}}, {"type": "Feature", "properties": {"norad_id": 39419, "name": "DUBAISAT-2", "group": "resource", "lat": -29.680993978325954, "lon": 154.6860027940213, "alt_km": 549.0318397518467, "timestamp": "2025-12-14T14:39:29.033387+00:00", "meta": {"OBJECT_NAME": "DUBAISAT-2", "OBJECT_ID": "2013-066D", "EPOCH": "2025-12-13T23:24:02.451168", "MEAN_MOTION": 15.08380447, "ECCENTRICITY": 0.00104491, "INCLINATION": 97.4455, "RA_OF_ASC_NODE": 338.3443, "ARG_OF_PERICENTER": 317.4318, "MEAN_ANOMALY": 42.61, "EPHEMERIS_TYPE": 0, "CLASSIFICATION_TYPE": "U", "NORAD_CAT_ID": 39419, "ELEMENT_SET_NO": 999, "REV_AT_EPOCH": 65845, "BSTAR": 0.00049143256, "MEAN_MOTION_DOT": 7.589e-05, "MEAN_MOTION_DDOT": 0}, "tle": {"line1": "1 39419U 13066D   25347.97502837  .00007589  00000+0  49143-3 0  9996", "line2": "2 39419  97.4455 338.3443 0010449 317.4318  42.6100 15.08380447658456"}}, "geometry": {"type": "Point", "coordinates": [154.6860027940213, -29.680993978325954]}}]}